IRIDIUM 63              
1 25286U 98021B   25231.56525901  .00000358  00000+0  11517-3 0  9992
2 25286  86.3936  55.5242 0002344  88.6329 271.5137 14.36583636432945
IRIDIUM 69              
1 25319U 98026A   25231.59161895  .00000368  00000+0  10821-3 0  9993
2 25319  86.3919  68.6122 0003317 134.0781 226.0692 14.41016724432197
IRIDIUM 71              
1 25320U 98026B   25231.59026141  .00000371  00000+0  10895-3 0  9994
2 25320  86.3921  63.2919 0001214 159.9614 200.1633 14.41199493432724
IRIDIUM 73              
1 25344U 98032C   25231.47473890  .00000543  00000+0  12999-3 0  9999
2 25344  86.4428  19.9252 0002729 102.2572 257.8939 14.51774490439741
IRIDIUM 82              
1 25467U 98051A   25231.58608891  .00025102  00000+0  65991-3 0  9997
2 25467  86.3614  78.4910 0082286  56.5069 304.4010 15.34973485433674
